NORAD_CAT_ID,OBJECT_NAME,OBJECT_TYPE,EPOCH,MEAN_MOTION,ECCENTRICITY,INCLINATION,RA_OF_ASC_NODE,ARG_OF_PERICENTER,MEAN_ANOMALY,BSTAR,MEAN_MOTION_DOT,MEAN_MOTION_DDOT,TLE_LINE0,TLE_LINE1,TLE_LINE2,SEMIMAJOR_AXIS,PERIOD,APOGEE,PERIGEE,DECAYED
51865.0,STARLINK-3503,PAYLOAD,2022-09-13 14:00:01,15.08860662,0.0001938,53.2157,324.3313,45.5189,55.0047,-0.00031506,-5.302e-05,0.0,0 STARLINK-3503,1 51865U 22022P   22256.58334491 -.00005302  00000-0 -31506-3 0  9997,2 51865  53.2157 324.3313 0001938  45.5189  55.0047 15.08860662  1309,6917.816999999999,95.436,541.023,538.342,0.0
51865.0,STARLINK-3503,PAYLOAD,2022-09-13 16:00:00,15.08856168,0.000193,53.2157,323.9545,44.1847,149.2473,8.229799999999999e-05,1.022e-05,0.0,0 STARLINK-3503,1 51865U 22022P   22256.66667824  .00001022  00000-0  82298-4 0  9993,2 51865  53.2157 323.9545 0001930  44.1847 149.2473 15.08856168 30924,6917.831,95.437,541.031,538.361,0.0
51865.0,STARLINK-3503,PAYLOAD,2022-09-13 22:00:00,15.08856387,0.0001713,53.2154,322.8332,46.2921,65.8439,-0.0035503,-0.00056375,0.0,0 STARLINK-3503,1 51865U 22022P   22256.91667824 -.00056375  00000-0 -35503-2 0  9999,2 51865  53.2154 322.8332 0001713  46.2921  65.8439 15.08856387  1306,6917.83,95.437,540.88,538.51,0.0
51865.0,STARLINK-3503,PAYLOAD,2022-09-14 06:00:00,15.08831881,0.0001648,53.2154,321.3373,48.2081,75.5118,-7.412300000000001e-05,-1.467e-05,0.0,0 STARLINK-3503,1 51865U 22022P   22257.25001157 -.00001467  00000-0 -74123-4 0  9993,2 51865  53.2154 321.3373 0001648  48.2081  75.5118 15.08831881 31016,6917.905,95.438,540.91,538.63,0.0
51865.0,STARLINK-3503,PAYLOAD,2022-09-14 14:00:01,15.08809806,0.0001828,53.2152,319.8424,41.8079,93.5018,0.002987,0.00047532,0.0,0 STARLINK-3503,1 51865U 22022P   22257.58334491  .00047532  00000-0  29870-2 0  9997,2 51865  53.2152 319.8424 0001828  41.8079  93.5018 15.08809806  1309,6917.973000000001,95.439,541.102,538.573,0.0
51865.0,STARLINK-3503,PAYLOAD,2022-09-14 22:00:00,15.08839805,0.0001701,53.215,318.3444,44.8804,102.011,0.00028865,4.309e-05,0.0,0 STARLINK-3503,1 51865U 22022P   22257.91667824  .00004309  00000-0  28865-3 0  9992,2 51865  53.2150 318.3444 0001701  44.8804 102.0110 15.08839805  1303,6917.880999999999,95.438,540.923,538.569,0.0
51865.0,STARLINK-3503,PAYLOAD,2022-09-15 06:00:00,15.0886255,0.0001728,53.215,316.8478,47.9087,110.5764,-0.00022673,-3.897e-05,0.0,0 STARLINK-3503,1 51865U 22022P   22258.25001157 -.00003897  00000-0 -22673-3 0  9995,2 51865  53.2150 316.8478 0001728  47.9087 110.5764 15.08862550 31168,6917.811,95.436,540.872,538.481,0.0
51865.0,STARLINK-3503,PAYLOAD,2022-09-15 14:00:01,15.08851541,0.0001875,53.215,315.3528,40.3788,129.7322,0.0003223,4.847e-05,0.0,0 STARLINK-3503,1 51865U 22022P   22258.58334491  .00004847  00000-0  32230-3 0  9995,2 51865  53.2150 315.3528 0001875  40.3788 129.7322 15.08851541  1309,6917.845,95.437,541.007,538.413,0.0
51865.0,STARLINK-3503,PAYLOAD,2022-09-15 21:11:53,15.08857512,0.00018,53.2154,314.0043,46.2325,313.8816,0.0002815,4.197e-05,0.0,0 STARLINK-3503,1 51865U 22022P   22258.88326092  .00004197  00000-0  28150-3 0  9990,2 51865  53.2154 314.0043 0001800  46.2325 313.8816 15.08857512 31267,6917.8269999999975,95.436,540.937,538.447,0.0
51865.0,STARLINK-3503,PAYLOAD,2022-09-16 13:05:45,15.08847726,0.000179,53.2153,311.0313,48.1871,311.9274,0.00019806,2.866e-05,0.0,0 STARLINK-3503,1 51865U 22022P   22259.54566286  .00002866  00000-0  19806-3 0  9994,2 51865  53.2153 311.0313 0001790  48.1871 311.9274 15.08847726 31362,6917.857,95.437,540.96,538.4830000000002,0.0
51865.0,STARLINK-3503,PAYLOAD,2022-09-16 14:41:08,15.08844406,0.0001784,53.2152,310.7335,48.4963,311.6182,0.0001200999999999,1.624e-05,0.0,0 STARLINK-3503,1 51865U 22022P   22259.61190378  .00001624  00000-0  12010-3 0  9998,2 51865  53.2152 310.7335 0001784  48.4963 311.6182 15.08844406 31377,6917.8669999999975,95.437,540.966,538.498,0.0
51865.0,STARLINK-3503,PAYLOAD,2022-09-16 21:02:41,15.08841066,0.0001794,53.2153,309.5438,48.552,311.5626,1.8742e-05,1e-07,0.0,0 STARLINK-3503,1 51865U 22022P   22259.87686433  .00000010  00000-0  18742-4 0  9995,2 51865  53.2153 309.5438 0001794  48.5520 311.5626 15.08841066 31415,6917.877,95.437,540.9830000000002,538.501,0.0
51865.0,STARLINK-3503,PAYLOAD,2022-09-17 11:21:10,15.08834313,0.0001902,53.217,306.8679,49.3904,310.7254,-0.00011454,-2.11e-05,0.0,0 STARLINK-3503,1 51865U 22022P   22260.47303643 -.00002110  00000-0 -11454-3 0  9999,2 51865  53.2170 306.8679 0001902  49.3904 310.7254 15.08834313 31502,6917.898,95.438,541.0790000000002,538.447,0.0
51865.0,STARLINK-3503,PAYLOAD,2022-09-17 14:31:56,15.08834372,0.0001931,53.217,306.274,47.923,312.1927,-0.00011261,-2.08e-05,0.0,0 STARLINK-3503,1 51865U 22022P   22260.60551669 -.00002080  00000-0 -11261-3 0  9999,2 51865  53.2170 306.2740 0001931  47.9230 312.1927 15.08834372 31523,6917.898,95.438,541.0980000000002,538.427,0.0
51865.0,STARLINK-3503,PAYLOAD,2022-09-18 09:36:33,15.08840752,0.0001874,53.2163,302.7047,42.5889,317.5248,1.5286e-05,-4.5e-07,0.0,0 STARLINK-3503,1 51865U 22022P   22261.40039014 -.00000045  00000-0  15286-4 0  9993,2 51865  53.2163 302.7047 0001874  42.5889 317.5248 15.08840752 31640,6917.878000000002,95.438,541.04,538.447,0.0
51865.0,STARLINK-3503,PAYLOAD,2022-09-18 11:11:56,15.08840821,0.0001862,53.2164,302.4071,44.3264,315.7877,2.5796e-05,1.22e-06,0.0,0 STARLINK-3503,1 51865U 22022P   22261.46662974  .00000122  00000-0  25796-4 0  9998,2 51865  53.2164 302.4071 0001862  44.3264 315.7877 15.08840821 31655,6917.878000000002,95.438,541.031,538.455,0.0
51865.0,STARLINK-3503,PAYLOAD,2022-09-18 14:22:43,15.08841218,0.0001868,53.2164,301.8129,47.1072,313.0076,4.4518e-05,4.2e-06,0.0,0 STARLINK-3503,1 51865U 22022P   22261.59910898  .00000420  00000-0  44518-4 0  9997,2 51865  53.2164 301.8129 0001868  47.1072 313.0076 15.08841218 31671,6917.877,95.437,541.034,538.4490000000002,0.0
51865.0,STARLINK-3503,PAYLOAD,2022-09-19 09:27:20,15.08846109,0.0001909,53.2161,298.2441,44.7323,315.3823,0.00028431,4.24e-05,0.0,0 STARLINK-3503,1 51865U 22022P   22262.39398450  .00004240  00000-0  28431-3 0  9999,2 51865  53.2161 298.2441 0001909  44.7323 315.3823 15.08846109 31794,6917.861999999999,95.437,541.047,538.406,0.0
51865.0,STARLINK-3503,PAYLOAD,2022-09-19 18:59:39,15.08839782,0.0002041,53.2155,296.4603,43.5304,316.5849,0.0001314,1.804e-05,0.0,0 STARLINK-3503,1 51865U 22022P   22262.79143177  .00001804  00000-0  13140-3 0  9991,2 51865  53.2155 296.4603 0002041  43.5304 316.5849 15.08839782 31858,6917.880999999999,95.438,541.158,538.3340000000002,0.0
51865.0,STARLINK-3503,PAYLOAD,2022-09-20 12:28:54,15.08835439,0.000172,53.2153,293.1883,42.2814,317.831,-8.263799999999999e-05,-1.603e-05,0.0,0 STARLINK-3503,1 51865U 22022P   22263.52007187 -.00001603  00000-0 -82638-4 0  9991,2 51865  53.2153 293.1883 0001720  42.2814 317.8310 15.08835439 31969,6917.894,95.438,540.9490000000002,538.569,0.0
51865.0,STARLINK-3503,PAYLOAD,2022-09-21 04:22:45,15.08837001,0.0001818,53.2138,290.2133,38.7975,321.3147,-0.00011664,-2.144e-05,0.0,0 STARLINK-3503,1 51865U 22022P   22264.18247211 -.00002144  00000-0 -11664-3 0  9999,2 51865  53.2138 290.2133 0001818  38.7975 321.3147 15.08837001 32061,6917.89,95.438,541.012,538.497,0.0
51865.0,STARLINK-3503,PAYLOAD,2022-09-21 13:55:04,15.08844429,0.000186,53.2157,288.4302,43.8657,316.2483,-7.194e-06,-4.03e-06,0.0,0 STARLINK-3503,1 51865U 22022P   22264.57991203 -.00000403  00000-0 -71940-5 0  9990,2 51865  53.2157 288.4302 0001860  43.8657 316.2483 15.08844429 32125,6917.8669999999975,95.437,541.019,538.445,0.0
51865.0,STARLINK-3503,PAYLOAD,2022-09-22 04:13:34,15.08823617,0.0001896,53.2159,285.7538,40.5503,319.5631,-8.3782e-05,-1.621e-05,0.0,0 STARLINK-3503,1 51865U 22022P   22265.17609127 -.00001621  00000-0 -83782-4 0  9997,2 51865  53.2159 285.7538 0001896  40.5503 319.5631 15.08823617 32218,6917.93,95.439,541.107,538.484,0.0
51865.0,STARLINK-3503,PAYLOAD,2022-09-22 12:10:29,15.08829062,0.0001966,53.2159,284.2675,42.5668,317.5476,8.9406e-05,1.135e-05,0.0,0 STARLINK-3503,1 51865U 22022P   22265.50729067  .00001135  00000-0  89406-4 0  9997,2 51865  53.2159 284.2675 0001966  42.5668 317.5476 15.08829062 32266,6917.9140000000025,95.438,541.139,538.419,0.0
51865.0,STARLINK-3503,PAYLOAD,2022-09-22 13:45:53,15.08828608,0.0001999,53.2159,283.9702,42.5192,317.5955,8.3073e-05,1.034e-05,0.0,0 STARLINK-3503,1 51865U 22022P   22265.57353168  .00001034  00000-0  83073-4 0  9991,2 51865  53.2159 283.9702 0001999  42.5192 317.5955 15.08828608 32279,6917.915,95.438,541.163,538.3969999999998,0.0
51865.0,STARLINK-3503,PAYLOAD,2022-09-23 08:50:30,15.08837373,0.0002105,53.2161,280.4018,46.8589,313.2579,9.3169e-05,1.195e-05,0.0,0 STARLINK-3503,1 51865U 22022P   22266.36841152  .00001195  00000-0  93169-4 0  9999,2 51865  53.2161 280.4018 0002105  46.8589 313.2579 15.08837373 32398,6917.888000000001,95.438,541.21,538.297,0.0
51865.0,STARLINK-3503,PAYLOAD,2022-09-23 18:22:49,15.0884236,0.0002101,53.2161,278.6171,45.5357,314.5807,0.00011532,1.548e-05,0.0,0 STARLINK-3503,1 51865U 22022P   22266.76584824  .00001548  00000-0  11532-3 0  9998,2 51865  53.2161 278.6171 0002101  45.5357 314.5807 15.08842360 32459,6917.873000000001,95.437,541.192,538.285,0.0
51865.0,STARLINK-3503,PAYLOAD,2022-09-24 10:16:40,15.08835049,0.0002204,53.2159,275.6435,48.351000000000006,311.7671,0.00046778,7.163e-05,0.0,0 STARLINK-3503,1 51865U 22022P   22267.42824655  .00007163  00000-0  46778-3 0  9990,2 51865  53.2159 275.6435 0002204  48.3510 311.7671 15.08835049 32557,6917.896,95.438,541.285,538.236,0.0
51865.0,STARLINK-3503,PAYLOAD,2022-09-25 11:42:50,15.08852605,0.0002134999999999,53.2158,270.8848,50.6217,309.4964,9.6029e-05,1.241e-05,0.0,0 STARLINK-3503,1 51865U 22022P   22268.48808158  .00001241  00000-0  96029-4 0  9993,2 51865  53.2158 270.8848 0002135  50.6217 309.4964 15.08852605 32718,6917.842,95.437,541.184,538.23,0.0
